MEV-1                   
1 44625U 19067B   23162.33509191 -.00000205  00000+0  00000+0 0  9995
2 44625   0.0183   6.1750 0000946  91.5410 254.8328  1.00270533 80543
TJS-4                   
1 44637U 19070A   23162.50050957 -.00000172  00000+0  00000+0 0  9995
2 44637   0.0390 274.4273 0004081 104.6036 144.2612  1.00270165 13501
BEIDOU-3 IGSO-3         
1 44709U 19073A   23161.76963282 -.00000212  00000+0  00000+0 0  9994
2 44709  56.6786 292.6481 0032326 179.0162 180.9443  1.00253830 13407
TIBA-1                  
1 44800U 19080A   23162.49100862  .00000153  00000+0  00000+0 0  9995
2 44800   0.0536 346.5180 0001703 122.4122   2.9070  1.00272645 13014
INMARSAT GX5            
1 44801U 19080B   23162.34276240  .00000072  00000+0  00000+0 0  9994
2 44801   0.0462  34.4617 0002357  44.3307 315.0500  1.00269760 13058
JCSAT-18 (KACIFIC 1)    
1 44868U 19091A   23161.63868862 -.00000204  00000+0  00000+0 0  9995
2 44868   0.0318 167.2342 0000298  28.0784  83.3338  1.00270559 13031
ELEKTRO-L 3             
1 44903U 19095A   23162.14841345 -.00000099  00000+0  00000+0 0  9995
2 44903   0.0903  85.5944 0001305  33.4288 269.6494  1.00269835 12643
SHIJIAN-20 (SJ-20)      
1 44910U 19097A   23162.63524429  .00000148  00000+0  00000+0 0  9994
2 44910   2.0868  88.1599 0000169 151.2666 289.0704  1.00270204 12646
TJS-5                   
1 44978U 20002A   23162.59023885 -.00000345  00000+0  00000+0 0  9991
2 44978   0.4617  88.8316 0001090 165.8704 325.0325  1.00271912 12654
GSAT-30                 
1 45026U 20005A   23162.50042241 -.00000166  00000+0  00000+0 0  9998
2 45026   0.0134 336.7647 0003789 100.4727  85.4778  1.00269447 12488
EUTELSAT KONNECT        
1 45027U 20005B   23161.33843929  .00000046  00000+0  00000+0 0  9997
2 45027   0.0547  95.5765 0000311 246.8348  45.0551  1.00267706 13264
JCSAT-17                
1 45245U 20013A   23162.43927337 -.00000325  00000+0  00000+0 0  9997
2 45245   5.8407 347.1915 0003073 104.2864 102.1856  1.00272275 12185
GEO-KOMPSAT-2B          
1 45246U 20013B   23162.58108250 -.00000346  00000+0  00000+0 0  9992
2 45246   0.0433 166.7028 0000278 120.6692 309.7193  1.00271458 12234
BEIDOU-3 G2             
1 45344U 20017A   23162.57130588 -.00000145  00000+0  00000+0 0  9990
2 45344   2.0105  11.7463 0003026 100.1095  73.4922  1.00272084 12216
AEHF-6 (USA 298)        
1 45465U 20022B   23162.58987597 -.00000303  00000+0  00000+0 0  9997
2 45465   5.1016 300.3071 0044389  10.7302 298.6824  1.00275499 11967
BEIDOU-3 G3             
1 45807U 20040A   23162.57759590 -.00000356  00000+0  00000+0 0  9994
2 45807   0.7157 329.0229 0005983 314.0258 294.9909  1.00264746 11027
APSTAR 6D               
1 45863U 20045A   23161.69979903 -.00000320  00000+0  00000+0 0  9996
2 45863   0.0535  93.6064 0002804 337.3520 213.7487  1.00273118 10798
KOREASAT 116            
1 45920U 20048A   23162.43516373 -.00000365  00000+0  00000+0 0  9993
2 45920   0.0092  21.3191 0000976  64.7254  86.3255  1.00269589 10594
EXPRESS 103             
1 45985U 20053A   23162.52684078 -.00000283  00000+0  00000+0 0  9997
2 45985   0.0008  26.5886 0000080 299.3030 219.8756  1.00271318 10608
EXPRESS 80              
1 45986U 20053B   23161.06074797 -.00000138  00000+0  00000+0 0  9996
2 45986   0.0172   5.7913 0002179 178.2048 176.0022  1.00269117 10587
BSAT-4B                 
1 46112U 20056A   23162.59989395 -.00000352  00000+0  00000+0 0  9997
2 46112   0.0765 115.9790 0004341 356.6280 112.8602  1.00269781 10340
MEV-2                   
1 46113U 20056B   23162.34032178 -.00000013  00000+0  00000+0 0  9993
2 46113   0.0433  89.1064 0001152  38.3250 253.5178  1.00270881 69570
GALAXY 30 (G-30)        
1 46114U 20056C   23162.56435579  .00000034  00000+0  00000+0 0  9992
2 46114   0.0182   6.0522 0002097  80.4191 251.3491  1.00273829 10249
GAOFEN 13-01            
1 46610U 20071A   23162.57907771 -.00000365  00000+0  00000+0 0  9997
2 46610   0.2455  90.3264 0002934  32.5098 103.1399  1.00267616  9873
TIANTONG-1 2            
1 46916U 20082A   23162.58047233 -.00000358  00000+0  00000+0 0  9999
2 46916   3.2555 293.5144 0002159 181.9415 118.1140  1.00273592  9602
LUCAS (JDRS-1)          
1 47202U 20089A   23162.28650369 -.00000236  00000+0  00000+0 0  9997
2 47202   0.0155 286.7298 0001981 140.1865  26.2841  1.00265979  9375
SXM-7                   
1 47240U 20096A   23162.29980715 -.00000207  00000+0  00000+0 0  9997
2 47240   0.0170   9.2172 0000921 192.9608  79.8861  1.00271884  9262
CMS-01                  
1 47256U 20099A   23162.50042241 -.00000167  00000+0  00000+0 0  9999
2 47256   0.0381 112.6382 0004142 166.0284 244.0650  1.00269203  9158
TURKSAT 5A              
1 47306U 21001A   23162.49004981  .00000152  00000+0  00000+0 0  9999
2 47306   0.0311  90.2424 0000194  47.5448 329.1176  1.00271380  8935
TIANTONG-1 3            
1 47321U 21003A   23162.50016091 -.00000159  00000+0  00000+0 0  9993
2 47321   3.6491 308.8085 0003478 145.5123  66.8504  1.00272095  8921
TJS-6                   
1 47613U 21010A   23162.61275615  .00000040  00000+0  00000+0 0  9994
2 47613   0.2654  77.5169 0001160  14.4633 206.7804  1.00267798  8762
SBIRS GEO-5 (USA 315)   
1 48618U 21042A   23162.05799376  .00000107  00000+0  00000+0 0  9992
2 48618   6.7488 325.5552 0001746 122.5146 212.8545  1.00271754  7706
FENGYUN 4B              
1 48808U 21047A   23162.58959271 -.00000324  00000+0  00000+0 0  9990
2 48808   0.0490 318.1906 0002739 196.8059  90.2661  1.00270356  7533
SXM-8                   
1 48838U 21049A   23162.01854830 -.00000207  00000+0  00000+0 0  9998
2 48838   0.0203 255.7213 0002829 105.8113 179.0174  1.00270914  7553
TIANLIAN 1-05           
1 49011U 21063A   23162.48722869  .00000106  00000+0  00000+0 0  9992
2 49011   1.2558 279.8638 0003853 176.4000 355.4982  1.00270955  7033
STAR ONE D2             
1 49055U 21069A   23161.46643344 -.00000268  00000+0  00000+0 0  9993
2 49055   0.0070 329.7671 0001712 116.0933 270.6004  1.00268780  6840
EUTELSAT QUANTUM        
1 49056U 21069B   23162.49344924  .00000123  00000+0  00000+0 0  9999
2 49056   0.0504  72.4082 0002250  13.5824  38.9243  1.00272429  6877
CHINASAT 2E (ZX 2E)     
1 49062U 21071A   23162.57515529 -.00000294  00000+0  00000+0 0  9999
2 49062   0.0154 252.7557 0000580 246.6224  65.3955  1.00270744  7000
TJS-7                   
1 49115U 21077A   23162.57633005 -.00000126  00000+0  00000+0 0  9998
2 49115   0.2012  99.3140 0004777 273.8911 354.4748  1.00270632  6753
CHINASAT 9B             
1 49125U 21080A   23162.53710118 -.00000315  00000+0  00000+0 0  9990
2 49125   0.0464 109.5331 0001912 358.6743  86.1615  1.00273137  6588
SHIJIAN-21 (SJ-21)      
1 49330U 21094A   23162.70418972  .00000133  00000+0  00000+0 0  9992
2 49330   9.1163  47.8136 0096754  24.7197 118.9182  1.00102713  6204
SES-17                  
1 49332U 21095A   23161.75371600 -.00000275  00000+0  00000+0 0  9993
2 49332   0.0160  53.6919 0001123  31.8085  17.5777  1.00269427  6792
SYRACUSE 4A             
1 49333U 21095B   23162.49292625  .00000132  00000+0  00000+0 0  9996
2 49333   0.0109  17.4987 0001444  54.1474  50.8742  1.00271986  6936
QZS-1R                  
1 49336U 21096A   23162.53846499 -.00000254  00000+0  00000+0 0  9995
2 49336  35.1845  96.2231 0756226 271.2508 221.2173  1.00259424  5975
CHINASAT 1D (ZX 1D)     
1 49505U 21114A   23162.47862307 -.00000338  00000+0  00000+0 0  9996
2 49505   0.5586 274.0185 0001466 247.2984  40.6995  1.00273007  5771
STPSAT-6                
1 49817U 21118A   23162.48801625 -.00000048  00000+0  00000+0 0  9991
2 49817   0.0142 344.5933 0000460  98.4485 240.5586  1.00269849  5528
LDPE-1                  
1 49818U 21118B   23162.49597701 -.00000146  00000+0  00000+0 0  9999
2 49818   1.2778  93.3250 0001194 184.4993 221.0692  1.01189390  5573
EXPRESS AMU-7           
1 50001U 21123A   23161.87807284 -.00000247  00000+0  00000+0 0  9994
2 50001   0.0255 324.1825 0000096 344.5813  51.2353  1.00269882  5491
EXPRESS AMU-3           
1 50002U 21123B   23161.99454093 -.00000324  00000+0  00000+0 0  9990
2 50002   0.0240 323.4058 0000418  21.3011  15.2918  1.00270672  5467
TIANLIAN 2-02           
1 50005U 21124A   23162.60774094 -.00000016  00000+0  00000+0 0  9997
2 50005   1.6293 278.2059 0002851 141.7449 229.4668  1.00272419  5572
TURKSAT 5B              
1 50212U 21126A   23161.66128771  .00000143  00000+0  00000+0 0  9999
2 50212   0.0646 345.7988 0003667  15.4496 177.5669  1.00271921  5248
INMARSAT 6-F1           
1 50319U 21128A   23161.42539257 -.00000175  00000+0  00000+0 0  9994
2 50319   0.0381  85.6415 0000498  66.4247 343.3405  1.00270277  5206
SHIYAN 12 01 (SY-12 01) 
1 50321U 21129A   23162.69779946 -.00000147  00000+0  00000+0 0  9998
2 50321   0.8270  99.5140 0000551  64.7459 146.5581  1.00114148  5469
SHIYAN 12 02 (SY-12 02) 
1 50322U 21129B   23162.70554428  .00000138  00000+0  00000+0 0  9996
2 50322   0.8274  99.5559 0000900   6.4820  78.0438  1.00065089  5460
TJS-9                   
1 50574U 21135A   23162.51120889 -.00000301  00000+0  00000+0 0  9994
2 50574   0.0169 315.9315 0004134  81.6682 183.2311  1.00273375  5393
USA 324                 
1 51280U 22006A   23150.38868674  .00000108  00000+0  00000+0 0  9994
2 51280   0.8422  93.1962 0000829 101.2180 252.5959  1.00020061  4940
USA 325                 
1 51281U 22006B   23151.40034501 -.00000259  00000+0  00000+0 0  9991
2 51281   0.2143  89.9133 0000834 280.3327 158.6315  1.00449116  4955
GOES 18                 
1 51850U 22021A   23162.55693257  .00000094  00000+0  00000+0 0  9993
2 51850   0.0432 149.3191 0000408 275.7823 258.0216  1.00272307  4756
CHINASAT 6D             
1 52255U 22038A   23161.93339850 -.00000357  00000+0  00000+0 0  9991
2 52255   0.0249 311.4967 0000434 348.1128  60.3861  1.00269559  4370
